$$SOE
2461288.500000000, A.D. 2026-Sep-05 00:00:00.0000, -2.527237876801477E+08, -3.743140974577025E+08, -1.562822469911940E+07,
2461295.500000000, A.D. 2026-Sep-12 00:00:00.0000, -2.447449295647960E+08, -3.797406423922384E+08, -1.586378197936201E+07,
2461302.500000000, A.D. 2026-Sep-19 00:00:00.0000, -2.366374439591359E+08, -3.849676508984466E+08, -1.609100242025745E+07,
2461309.500000000, A.D. 2026-Sep-26 00:00:00.0000, -2.284056856131774E+08, -3.899925290361151E+08, -1.630977281590557E+07,
2461316.500000000, A.D. 2026-Oct-03 00:00:00.0000, -2.200540424690516E+08, -3.948127503260031E+08, -1.651998281091213E+07,
2461323.500000000, A.D. 2026-Oct-10 00:00:00.0000, -2.115869360321454E+08, -3.994258551624978E+08, -1.672152487223217E+07,
2461330.500000000, A.D. 2026-Oct-17 00:00:00.0000, -2.030088218246722E+08, -4.038294503772491E+08, -1.691429426792651E+07,
2461337.500000000, A.D. 2026-Oct-24 00:00:00.0000, -1.943241898946463E+08, -4.080212089782952E+08, -1.709818905693015E+07,
2461344.500000000, A.D. 2026-Oct-31 00:00:00.0000, -1.855375652791127E+08, -4.119988701330537E+08, -1.727311010426950E+07,
2461351.500000000, A.D. 2026-Nov-07 00:00:00.0000, -1.766535080801854E+08, -4.157602393225801E+08, -1.743896114663851E+07,
2461358.500000000, A.D. 2026-Nov-14 00:00:00.0000, -1.676766129505719E+08, -4.193031877809580E+08, -1.759564885404700E+07,
2461365.500000000, A.D. 2026-Nov-21 00:00:00.0000, -1.586115097975640E+08, -4.226256505386834E+08, -1.774308266541642E+07,
2461372.500000000, A.D. 2026-Nov-28 00:00:00.0000, -1.494628667000973E+08, -4.257256260788419E+08, -1.788117455223048E+07,
2461379.500000000, A.D. 2026-Dec-05 00:00:00.0000, -1.402353914160190E+08, -4.286011782647278E+08, -1.800983909576836E+07,
2461386.500000000, A.D. 2026-Dec-12 00:00:00.0000, -1.309338313123417E+08, -4.312504374308795E+08, -1.812899363864785E+07,
2461393.500000000, A.D. 2026-Dec-19 00:00:00.0000, -1.215629736035741E+08, -4.336716006330881E+08, -1.823855833681861E+07,
2461400.500000000, A.D. 2026-Dec-26 00:00:00.0000, -1.121276460379997E+08, -4.358629319267967E+08, -1.833845616966754E+07,
2461407.500000000, A.D. 2027-Jan-02 00:00:00.0000, -1.026327177533702E+08, -4.378227628661231E+08, -1.842861294900158E+07,
2461414.500000000, A.D. 2027-Jan-09 00:00:00.0000, -9.308310018225424E+07, -4.395494932049302E+08, -1.850895733596572E+07,
2461421.500000000, A.D. 2027-Jan-16 00:00:00.0000, -8.348374796908805E+07, -4.410415917934340E+08, -1.857942086850932E+07,
2461428.500000000, A.D. 2027-Jan-23 00:00:00.0000, -7.383965985086122E+07, -4.422975977129501E+08, -1.863993800699675E+07,
2461435.500000000, A.D. 2027-Jan-30 00:00:00.0000, -6.415587931211236E+07, -4.433161216996959E+08, -1.869044621923798E+07,
2461442.500000000, A.D. 2027-Feb-06 00:00:00.0000, -5.443749458797493E+07, -4.440958475206064E+08, -1.873088611628067E+07,
2461449.500000000, A.D. 2027-Feb-13 00:00:00.0000, -4.468963847386680E+07, -4.446355320841348E+08, -1.876120149726725E+07,
2461456.500000000, A.D. 2027-Feb-20 00:00:00.0000, -3.491749030328251E+07, -4.449340050789081E+08, -1.878133915145102E+07,
2461463.500000000, A.D. 2027-Feb-27 00:00:00.0000, -2.512627869409734E+07, -4.449901713559252E+08, -1.879124880841136E+07,
2461470.500000000, A.D. 2027-Mar-06 00:00:00.0000, -1.532128204135335E+07, -4.448030141354879E+08, -1.879088335658628E+07,
2461477.500000000, A.D. 2027-Mar-13 00:00:00.0000, -5.507828353599924E+06, -4.443715969932791E+08, -1.878019901613492E+07,
2461484.500000000, A.D. 2027-Mar-20 00:00:00.0000, 4.308704440833468E+06, -4.436950654624358E+08, -1.875915543085268E+07,
2461491.500000000, A.D. 2027-Mar-27 00:00:00.0000, 1.412288792336973E+07, -4.427726488011521E+08, -1.872771574253097E+07,
2461498.500000000, A.D. 2027-Apr-03 00:00:00.0000, 2.392924255853068E+07, -4.416036619731964E+08, -1.868584667029917E+07,
2461505.500000000, A.D. 2027-Apr-10 00:00:00.0000, 3.372223707932553E+07, -4.401875078183275E+08, -1.863351859889373E+07,
2461512.500000000, A.D. 2027-Apr-17 00:00:00.0000, 4.349628791512120E+07, -4.385236794290724E+08, -1.857070567947277E+07,
2461519.500000000, A.D. 2027-Apr-24 00:00:00.0000, 5.324575874944570E+07, -4.366117628007674E+08, -1.849738595576778E+07,
2461526.500000000, A.D. 2027-May-01 00:00:00.0000, 6.296496051431478E+07, -4.344514397329151E+08, -1.841354154103309E+07,
2461533.500000000, A.D. 2027-May-08 00:00:00.0000, 7.264815213434470E+07, -4.320424902385435E+08, -1.831915881288138E+07,
2461540.500000000, A.D. 2027-May-15 00:00:00.0000, 8.228954052943875E+07, -4.293847935112587E+08, -1.821422841077548E+07,
2461547.500000000, A.D. 2027-May-22 00:00:00.0000, 9.188327831878576E+07, -4.264783300423877E+08, -1.809874510453966E+07,
2461554.500000000, A.D. 2027-May-29 00:00:00.0000, 1.014234625906397E+08, -4.233231863569893E+08, -1.797270796174398E+07,
2461561.500000000, A.D. 2027-Jun-05 00:00:00.0000, 1.109041356322348E+08, -4.199195592392410E+08, -1.783612063922551E+07,
2461568.500000000, A.D. 2027-Jun-12 00:00:00.0000, 1.203192856217112E+08, -4.162677590179838E+08, -1.768899157930169E+07,
2461575.500000000, A.D. 2027-Jun-19 00:00:00.0000, 1.296628469605679E+08, -4.123682128492762E+08, -1.753133415662619E+07,
2461582.500000000, A.D. 2027-Jun-26 00:00:00.0000, 1.389287005359286E+08, -4.082214682586191E+08, -1.736316682252175E+07,
2461589.500000000, A.D. 2027-Jul-03 00:00:00.0000, 1.481106740547989E+08, -4.038281969352711E+08, -1.718451325801000E+07,
2461596.500000000, A.D. 2027-Jul-10 00:00:00.0000, 1.572025424975364E+08, -3.991891987695203E+08, -1.699540253793743E+07,
2461603.500000000, A.D. 2027-Jul-17 00:00:00.0000, 1.661980287382860E+08, -3.943054061701926E+08, -1.679586931241173E+07,
2461610.500000000, A.D. 2027-Jul-24 00:00:00.0000, 1.750908045018034E+08, -3.891778887233109E+08, -1.658595402472565E+07,
2461617.500000000, A.D. 2027-Jul-31 00:00:00.0000, 1.838744920823933E+08, -3.838078579551288E+08, -1.636570318391120E+07,
2461624.500000000, A.D. 2027-Aug-07 00:00:00.0000, 1.925426666389640E+08, -3.781966710470140E+08, -1.613516957906750E+07,
2461631.500000000, A.D. 2027-Aug-14 00:00:00.0000, 2.010888567796408E+08, -3.723458337537096E+08, -1.589441224489191E+07,
2461638.500000000, A.D. 2027-Aug-21 00:00:00.0000, 2.095065440691712E+08, -3.662570058851413E+08, -1.564349651001377E+07,
2461645.500000000, A.D. 2027-Aug-28 00:00:00.0000, 2.177891649069845E+08, -3.599320081442754E+08, -1.538249434455436E+07,
2461652.500000000, A.D. 2027-Sep-04 00:00:00.0000, 2.259301136123331E+08, -3.533728278154464E+08, -1.511148469415276E+07,
2461659.500000000, A.D. 2027-Sep-11 00:00:00.0000, 2.339227453384289E+08, -3.465816239602001E+08, -1.483055372653955E+07,
2461666.500000000, A.D. 2027-Sep-18 00:00:00.0000, 2.417603789661178E+08, -3.395607327645337E+08, -1.453979505597642E+07,
2461673.500000000, A.D. 2027-Sep-25 00:00:00.0000, 2.494363002238769E+08, -3.323126731070853E+08, -1.423930997280116E+07,
2461680.500000000, A.D. 2027-Oct-02 00:00:00.0000, 2.569437651275970E+08, -3.248401523110253E+08, -1.392920768255138E+07,
2461687.500000000, A.D. 2027-Oct-09 00:00:00.0000, 2.642760037812604E+08, -3.171460720725620E+08, -1.360960555688266E+07,
2461694.500000000, A.D. 2027-Oct-16 00:00:00.0000, 2.714262246208097E+08, -3.092335346069296E+08, -1.328062940631317E+07,
2461701.500000000, A.D. 2027-Oct-23 00:00:00.0000, 2.783876193817438E+08, -3.011058490015227E+08, -1.294241379875767E+07,
2461708.500000000, A.D. 2027-Oct-30 00:00:00.0000, 2.851533691876953E+08, -2.927665371495515E+08, -1.259510240778786E+07,
2461715.500000000, A.D. 2027-Nov-06 00:00:00.0000, 2.917166506191593E+08, -2.842193381201222E+08, -1.223884819095583E+07,
2461722.500000000, A.D. 2027-Nov-13 00:00:00.0000, 2.980706397972949E+08, -2.754682130226082E+08, -1.187381338493967E+07,
2461729.500000000, A.D. 2027-Nov-20 00:00:00.0000, 3.042085174036806E+08, -2.665173525282358E+08, -1.150016976141670E+07,
2461736.500000000, A.D. 2027-Nov-27 00:00:00.0000, 3.101234762734190E+08, -2.573711840593779E+08, -1.111809904866597E+07,
2461743.500000000, A.D. 2027-Dec-04 00:00:00.0000, 3.158087295569216E+08, -2.480343777063928E+08, -1.072779325732373E+07,
2461750.500000000, A.D. 2027-Dec-11 00:00:00.0000, 3.212575189163115E+08, -2.385118518058200E+08, -1.032945493720345E+07,
2461757.500000000, A.D. 2027-Dec-18 00:00:00.0000, 3.264631230472234E+08, -2.288087784838237E+08, -9.923297416739747E+06,
2461764.500000000, A.D. 2027-Dec-25 00:00:00.0000, 3.314188666953114E+08, -2.189305891282545E+08, -9.509545037781477E+06,
2461771.500000000, A.D. 2028-Jan-01 00:00:00.0000, 3.361181302278943E+08, -2.088829797349387E+08, -9.088433386804491E+06,
$$EOE